STARLINK-36943
1 68035U 26040W   26090.83335647 -.01888149  00000+0 -16324-1 0  9997
2 68035  97.2856  40.4082 0001364 102.7120 233.0525 15.72480354  6045
